ICOR SV                 
1 68127U 26046A   26097.51674506  .00592369  12403-4  56533-3 0  9993
2 68127 123.0697 338.3484 0078841 244.0382 115.2559 16.04698384  4199
GUOWANG GROUP 20 OBJECT*
1 68129U 26047A   26097.50293961 -.00000101  00000+0  40005-4 0  9999
2 68129  50.0046 314.5213 0001045 159.3120 200.7815 13.77993151  3599
GUOWANG GROUP 20 OBJECT*
1 68130U 26047B   26097.49881988 -.00000077  00000+0  63564-4 0  9998
2 68130  50.0045 314.5004 0000353 221.7043 138.3823 13.78211692  3585
GUOWANG GROUP 20 OBJECT*
1 68131U 26047C   26097.42289306 -.00000105  00000+0  36228-4 0  9997
2 68131  50.0012 314.7571 0000600 280.7634  79.3192 13.78348464  3588
GUOWANG GROUP 20 OBJECT*
1 68132U 26047D   26097.41937973 -.00000096  00000+0  44823-4 0  9996
2 68132  50.0066 314.7512 0000825 259.3867 100.6934 13.78557550  3571
GUOWANG GROUP 20 OBJECT*
1 68133U 26047E   26097.05319087 -.00000113  00000+0  28148-4 0  9999
2 68133  49.9979 316.1391 0001852 220.6312 139.4444 13.78823550  3538
GUOWANG GROUP 20 OBJECT*
1 68134U 26047F   26097.11907829 -.00000054  00000+0  85381-4 0  9990
2 68134  50.0081 315.8403 0000711 326.8089  33.2760 13.79226355  3532
GUOWANG GROUP 20 OBJECT*
1 68135U 26047G   26097.48467613 -.00000020  00000+0  11891-3 0  9990
2 68135  50.0174 314.4387 0002343 239.5673 120.4990 13.78902083  3592
GUOWANG GROUP 20 OBJECT*
1 68136U 26047H   26096.82598167 -.00000100  00000+0  40198-4 0  9999
2 68136  50.0092 316.9194 0005081 346.1524  13.9231 13.80114638  3494
GUOWANG GROUP 20 OBJECT*
1 68137U 26047J   26096.96736006 -.00000122  00000+0  19700-4 0  9990
2 68137  50.0088 316.3637 0001136   7.4790 352.6121 13.79863034  3529
SHIYAN-30 03            
1 68139U 26048A   26097.75242820  .00002476  00000+0  24359-3 0  9995
2 68139  35.0010 329.9042 0002468 103.3393 256.7587 14.91795394  3846
SHIYAN-30 04            
1 68140U 26048B   26097.75312697  .00002373  00000+0  23358-3 0  9991
2 68140  34.9925 329.8996 0001066 124.4754 235.6052 14.91792323  3848
